{
  "type": "FeatureCollection",
  "features": [
    {
      "type": "Feature",
      "properties": {
        "norad_id": 26766,
        "name": "INTELSAT 10 (IS-10)",
        "group": "intelsat",
        "lat": 8.367882162833673,
        "lon": 137.0883558640627,
        "alt_km": 36149.36859326131,
        "timestamp": "2025-12-05T16:54:14.336934+00:00",
        "meta_object_name": "INTELSAT 10 (IS-10)",
        "meta_object_id": "2001-019A",
        "meta_epoch": "2025-12-04T12:50:24.704160",
        "meta_mean_motion": 0.99078419,
        "meta_eccentricity": 0.00078041,
        "meta_inclination": 8.6091,
        "meta_ra_of_asc_node": 61.2371,
        "meta_arg_of_pericenter": 219.0537,
        "meta_mean_anomaly": 159.9231,
        "meta_ephemeris_type": 0,
        "meta_classification_type": "U",
        "meta_norad_cat_id": 26766,
        "meta_element_set_no": 999,
        "meta_rev_at_epoch": 4365,
        "meta_bstar": 0,
        "meta_mean_motion_dot": -1.87e-06,
        "meta_mean_motion_ddot": 0,
        "tle_line1": "1 26766U 01019A   25338.53500815 -.00000187  00000+0  00000+0 0  9991",
        "tle_line2": "2 26766   8.6091  61.2371 0007804 219.0537 159.9231  0.99078419 43654"
      },
      "geometry": {
        "type": "Point",
        "coordinates": [
          137.0883558640627,
          8.367882162833673
        ]
      }
    },
    {
      "type": "Feature",
      "properties": {
        "norad_id": 26900,
        "name": "INTELSAT 902 (IS-902)",
        "group": "intelsat",
        "lat": -2.3135897105645484,
        "lon": -81.91477684125718,
        "alt_km": 35771.218125800966,
        "timestamp": "2025-12-05T16:54:14.336956+00:00",
        "meta_object_name": "INTELSAT 902 (IS-902)",
        "meta_object_id": "2001-039A",
        "meta_epoch": "2025-12-01T16:59:59.311968",
        "meta_mean_motion": 1.00270327,
        "meta_eccentricity": 0.00043097,
        "meta_inclination": 5.6187,
        "meta_ra_of_asc_node": 74.2002,
        "meta_arg_of_pericenter": 175.119,
        "meta_mean_anomaly": 26.3816,
        "meta_ephemeris_type": 0,
        "meta_classification_type": "U",
        "meta_norad_cat_id": 26900,
        "meta_element_set_no": 999,
        "meta_rev_at_epoch": 8871,
        "meta_bstar": 0,
        "meta_mean_motion_dot": -2.63e-06,
        "meta_mean_motion_ddot": 0,
        "tle_line1": "1 26900U 01039A   25335.70832537 -.00000263  00000+0  00000+0 0  9993",
        "tle_line2": "2 26900   5.6187  74.2002 0004309 175.1190  26.3816  1.00270327 88713"
      },
      "geometry": {
        "type": "Point",
        "coordinates": [
          -81.91477684125718,
          -2.3135897105645484
        ]
      }
    },
    {
      "type": "Feature",
      "properties": {
        "norad_id": 27380,
        "name": "INTELSAT 904 (IS-904)",
        "group": "intelsat",
        "lat": -4.58893201814157,
        "lon": -63.37761833921622,
        "alt_km": 35780.70354675988,
        "timestamp": "2025-12-05T16:54:14.336970+00:00",
        "meta_object_name": "INTELSAT 904 (IS-904)",
        "meta_object_id": "2002-007A",
        "meta_epoch": "2025-12-04T23:50:59.656992",
        "meta_mean_motion": 1.00268913,
        "meta_eccentricity": 0.00017027,
        "meta_inclination": 6.4346,
        "meta_ra_of_asc_node": 71.5199,
        "meta_arg_of_pericenter": 207.4676,
        "meta_mean_anomaly": 121.3102,
        "meta_ephemeris_type": 0,
        "meta_classification_type": "U",
        "meta_norad_cat_id": 27380,
        "meta_element_set_no": 999,
        "meta_rev_at_epoch": 4981,
        "meta_bstar": 0,
        "meta_mean_motion_dot": -2.17e-06,
        "meta_mean_motion_ddot": 0,
        "tle_line1": "1 27380U 02007A   25338.99374603 -.00000217  00000+0  00000+0 0  9990",
        "tle_line2": "2 27380   6.4346  71.5199 0001702 207.4676 121.3102  1.00268913 49811"
      },
      "geometry": {
        "type": "Point",
        "coordinates": [
          -63.37761833921622,
          -4.58893201814157
        ]
      }
    },
    {
      "type": "Feature",
      "properties": {
        "norad_id": 27426,
        "name": "DIRECTV 5 (TEMPO 1)",
        "group": "intelsat",
        "lat": 2.7683764796311507,
        "lon": -141.76754430154537,
        "alt_km": 35775.76637869074,
        "timestamp": "2025-12-05T16:54:14.336982+00:00",
        "meta_object_name": "DIRECTV 5 (TEMPO 1)",
        "meta_object_id": "2002-023A",
        "meta_epoch": "2025-12-05T04:34:38.633952",
        "meta_mean_motion": 1.00271336,
        "meta_eccentricity": 0.00038772,
        "meta_inclination": 4.3818,
        "meta_ra_of_asc_node": 77.7404,
        "meta_arg_of_pericenter": 192.7175,
        "meta_mean_anomaly": 122.3307,
        "meta_ephemeris_type": 0,
        "meta_classification_type": "U",
        "meta_norad_cat_id": 27426,
        "meta_element_set_no": 999,
        "meta_rev_at_epoch": 8617,
        "meta_bstar": 0,
        "meta_mean_motion_dot": -4.7e-07,
        "meta_mean_motion_ddot": 0,
        "tle_line1": "1 27426U 02023A   25339.19072493 -.00000047  00000+0  00000+0 0  9995",
        "tle_line2": "2 27426   4.3818  77.7404 0003877 192.7175 122.3307  1.00271336 86176"
      },
      "geometry": {
        "type": "Point",
        "coordinates": [
          -141.76754430154537,
          2.7683764796311507
        ]
      }
    },
    {
      "type": "Feature",
      "properties": {
        "norad_id": 27438,
        "name": "INTELSAT 905 (IS-905)",
        "group": "intelsat",
        "lat": 5.467220448219754,
        "lon": -168.743050105335,
        "alt_km": 35780.21358660819,
        "timestamp": "2025-12-05T16:54:14.336993+00:00",
        "meta_object_name": "INTELSAT 905 (IS-905)",
        "meta_object_id": "2002-027A",
        "meta_epoch": "2025-12-03T09:40:44.149728",
        "meta_mean_motion": 1.00273288,
        "meta_eccentricity": 0.00031296,
        "meta_inclination": 6.2606,
        "meta_ra_of_asc_node": 72.1621,
        "meta_arg_of_pericenter": 189.1417,
        "meta_mean_anomaly": 179.1858,
        "meta_ephemeris_type": 0,
        "meta_classification_type": "U",
        "meta_norad_cat_id": 27438,
        "meta_element_set_no": 999,
        "meta_rev_at_epoch": 4940,
        "meta_bstar": 0,
        "meta_mean_motion_dot": 1.09e-06,
        "meta_mean_motion_ddot": 0,
        "tle_line1": "1 27438U 02027A   25337.40328877  .00000109  00000+0  00000+0 0  9992",
        "tle_line2": "2 27438   6.2606  72.1621 0003129 189.1417 179.1858  1.00273288 49408"
      },
      "geometry": {
        "type": "Point",
        "coordinates": [
          -168.743050105335,
          5.467220448219754
        ]
      }
    },
    {
      "type": "Feature",
      "properties": {
        "norad_id": 27445,
        "name": "GALAXY 3C (G-3C)",
        "group": "intelsat",
        "lat": 1.452573044724073,
        "lon": -126.50605401020779,
        "alt_km": 35782.86162145658,
        "timestamp": "2025-12-05T16:54:14.337005+00:00",
        "meta_object_name": "GALAXY 3C (G-3C)",
        "meta_object_id": "2002-030A",
        "meta_epoch": "2025-12-05T04:26:38.705280",
        "meta_mean_motion": 1.0027055,
        "meta_eccentricity": 0.00012781,
        "meta_inclination": 3.2443,
        "meta_ra_of_asc_node": 80.5831,
        "meta_arg_of_pericenter": 102.0038,
        "meta_mean_anomaly": 223.4603,
        "meta_ephemeris_type": 0,
        "meta_classification_type": "U",
        "meta_norad_cat_id": 27445,
        "meta_element_set_no": 999,
        "meta_rev_at_epoch": 4454,
        "meta_bstar": 0,
        "meta_mean_motion_dot": -1.42e-06,
        "meta_mean_motion_ddot": 0,
        "tle_line1": "1 27445U 02030A   25339.18517020 -.00000142  00000+0  00000+0 0  9999",
        "tle_line2": "2 27445   3.2443  80.5831 0001278 102.0038 223.4603  1.00270550 44544"
      },
      "geometry": {
        "type": "Point",
        "coordinates": [
          -126.50605401020779,
          1.452573044724073
        ]
      }
    },
    {
      "type": "Feature",
      "properties": {
        "norad_id": 27513,
        "name": "INTELSAT 906 (IS-906)",
        "group": "intelsat",
        "lat": -3.5859629899555427,
        "lon": 32.62490863091984,
        "alt_km": 35803.42394828151,
        "timestamp": "2025-12-05T16:54:14.337016+00:00",
        "meta_object_name": "INTELSAT 906 (IS-906)",
        "meta_object_id": "2002-041A",
        "meta_epoch": "2025-12-05T05:26:28.773024",
        "meta_mean_motion": 1.00270153,
        "meta_eccentricity": 0.00060107,
        "meta_inclination": 5.3098,
        "meta_ra_of_asc_node": 75.3213,
        "meta_arg_of_pericenter": 187.0513,
        "meta_mean_anomaly": 317.6773,
        "meta_ephemeris_type": 0,
        "meta_classification_type": "U",
        "meta_norad_cat_id": 27513,
        "meta_element_set_no": 999,
        "meta_rev_at_epoch": 8508,
        "meta_bstar": 0,
        "meta_mean_motion_dot": 2.2e-07,
        "meta_mean_motion_ddot": 0,
        "tle_line1": "1 27513U 02041A   25339.22672191  .00000022  00000+0  00000+0 0  9999",
        "tle_line2": "2 27513   5.3098  75.3213 0006010 187.0513 317.6773  1.00270153 85082"
      },
      "geometry": {
        "type": "Point",
        "coordinates": [
          32.62490863091984,
          -3.5859629899555427
        ]
      }
    }
  ]
}